[{"OBJECT_NAME":"ONEWEB-0464","OBJECT_ID":"2022-012AF","EPOCH":"2026-06-19T04:06:32.676192","MEAN_MOTION":13.10232152,"ECCENTRICITY":0.0001494,"INCLINATION":87.8822,"RA_OF_ASC_NODE":35.8859,"ARG_OF_PERICENTER":76.704,"MEAN_ANOMALY":283.4254,"EPHEMERIS_TYPE":0,"CLASSIFICATION_TYPE":"U","NORAD_CAT_ID":51651,"ELEMENT_SET_NO":999,"REV_AT_EPOCH":20958,"BSTAR":-0.00054555,"MEAN_MOTION_DOT":-1.77e-06,"MEAN_MOTION_DDOT":0.0},{"OBJECT_NAME":"ONEWEB-0468","OBJECT_ID":"2022-012AG","EPOCH":"2026-06-19T04:15:17.977824","MEAN_MOTION":13.10498394,"ECCENTRICITY":0.0001376,"INCLINATION":87.8826,"RA_OF_ASC_NODE":35.8786,"ARG_OF_PERICENTER":77.1877,"MEAN_ANOMALY":282.9404,"EPHEMERIS_TYPE":0,"CLASSIFICATION_TYPE":"U","NORAD_CAT_ID":51652,"ELEMENT_SET_NO":999,"REV_AT_EPOCH":20956,"BSTAR":0.007856,"MEAN_MOTION_DOT":2.761e-05,"MEAN_MOTION_DDOT":0.0},{"OBJECT_NAME":"ONEWEB-0473","OBJECT_ID":"2022-012AH","EPOCH":"2026-06-19T02:04:31.235232","MEAN_MOTION":13.10266983,"ECCENTRICITY":0.0001772,"INCLINATION":87.8824,"RA_OF_ASC_NODE":35.898,"ARG_OF_PERICENTER":78.8566,"MEAN_ANOMALY":281.276,"EPHEMERIS_TYPE":0,"CLASSIFICATION_TYPE":"U","NORAD_CAT_ID":51653,"ELEMENT_SET_NO":999,"REV_AT_EPOCH":20955,"BSTAR":-0.0008469,"MEAN_MOTION_DOT":-2.83e-06,"MEAN_MOTION_DDOT":0.0},{"OBJECT_NAME":"ONEWEB-0474","OBJECT_ID":"2022-012AJ","EPOCH":"2026-06-19T01:52:29.329536","MEAN_MOTION":13.10298154,"ECCENTRICITY":0.0001568,"INCLINATION":87.884,"RA_OF_ASC_NODE":35.8843,"ARG_OF_PERICENTER":75.0455,"MEAN_ANOMALY":285.0846,"EPHEMERIS_TYPE":0,"CLASSIFICATION_TYPE":"U","NORAD_CAT_ID":51654,"ELEMENT_SET_NO":999,"REV_AT_EPOCH":20954,"BSTAR":0.0016341,"MEAN_MOTION_DOT":5.82e-06,"MEAN_MOTION_DDOT":0.0},{"OBJECT_NAME":"ONEWEB-0475","OBJECT_ID":"2022-012AK","EPOCH":"2026-06-19T06:32:34.718784","MEAN_MOTION":13.1764874,"ECCENTRICITY":0.000143,"INCLINATION":87.9132,"RA_OF_ASC_NODE":5.4577,"ARG_OF_PERICENTER":70.8162,"MEAN_ANOMALY":289.3124,"EPHEMERIS_TYPE":0,"CLASSIFICATION_TYPE":"U","NORAD_CAT_ID":51655,"ELEMENT_SET_NO":999,"REV_AT_EPOCH":21396,"BSTAR":5.1200000000000004e-05,"MEAN_MOTION_DOT":3.3e-07,"MEAN_MOTION_DDOT":0.0},{"OBJECT_NAME":"ONEWEB-0490","OBJECT_ID":"2022-138A","EPOCH":"2026-06-19T02:32:23.119296","MEAN_MOTION":13.19724876,"ECCENTRICITY":0.0001731,"INCLINATION":87.9178,"RA_OF_ASC_NODE":304.5846,"ARG_OF_PERICENTER":102.8728,"MEAN_ANOMALY":257.2598,"EPHEMERIS_TYPE":0,"CLASSIFICATION_TYPE":"U","NORAD_CAT_ID":54113,"ELEMENT_SET_NO":999,"REV_AT_EPOCH":17708,"BSTAR":0.00021359000000000002,"MEAN_MOTION_DOT":9.8e-07,"MEAN_MOTION_DDOT":0.0},{"OBJECT_NAME":"ONEWEB-0492","OBJECT_ID":"2022-138B","EPOCH":"2026-06-18T21:41:15.169056","MEAN_MOTION":13.19726133,"ECCENTRICITY":0.0001851,"INCLINATION":87.9172,"RA_OF_ASC_NODE":304.6262,"ARG_OF_PERICENTER":107.212,"MEAN_ANOMALY":252.9216,"EPHEMERIS_TYPE":0,"CLASSIFICATION_TYPE":"U","NORAD_CAT_ID":54114,"ELEMENT_SET_NO":999,"REV_AT_EPOCH":17706,"BSTAR":-0.00010493,"MEAN_MOTION_DOT":-2.9e-07,"MEAN_MOTION_DDOT":0.0},{"OBJECT_NAME":"ONEWEB-0495","OBJECT_ID":"2022-138C","EPOCH":"2026-06-18T21:09:24.338016","MEAN_MOTION":13.19724455,"ECCENTRICITY":0.0001316,"INCLINATION":87.9171,"RA_OF_ASC_NODE":304.6328,"ARG_OF_PERICENTER":111.8838,"MEAN_ANOMALY":248.2435,"EPHEMERIS_TYPE":0,"CLASSIFICATION_TYPE":"U","NORAD_CAT_ID":54115,"ELEMENT_SET_NO":999,"REV_AT_EPOCH":17704,"BSTAR":-2.1698000000000004e-06,"MEAN_MOTION_DOT":1.2e-07,"MEAN_MOTION_DDOT":0.0},{"OBJECT_NAME":"ONEWEB-0497","OBJECT_ID":"2022-138D","EPOCH":"2026-06-19T02:55:07.832352","MEAN_MOTION":13.19724731,"ECCENTRICITY":0.0001814,"INCLINATION":87.9179,"RA_OF_ASC_NODE":304.5773,"ARG_OF_PERICENTER":101.0572,"MEAN_ANOMALY":259.0765,"EPHEMERIS_TYPE":0,"CLASSIFICATION_TYPE":"U","NORAD_CAT_ID":54116,"ELEMENT_SET_NO":999,"REV_AT_EPOCH":17706,"BSTAR":9.101000000000001e-05,"MEAN_MOTION_DOT":4.9e-07,"MEAN_MOTION_DDOT":0.0},{"OBJECT_NAME":"ONEWEB-0499","OBJECT_ID":"2022-138E","EPOCH":"2026-06-19T02:31:14.540160","MEAN_MOTION":13.1972678,"ECCENTRICITY":0.0001617,"INCLINATION":87.9172,"RA_OF_ASC_NODE":304.5896,"ARG_OF_PERICENTER":99.2468,"MEAN_ANOMALY":260.8848,"EPHEMERIS_TYPE":0,"CLASSIFICATION_TYPE":"U","NORAD_CAT_ID":54117,"ELEMENT_SET_NO":999,"REV_AT_EPOCH":17707,"BSTAR":3.5316e-05,"MEAN_MOTION_DOT":2.7e-07,"MEAN_MOTION_DDOT":0.0},{"OBJECT_NAME":"ONEWEB-0500","OBJECT_ID":"2022-138F","EPOCH":"2026-06-18T21:07:07.701600","MEAN_MOTION":13.19724246,"ECCENTRICITY":0.0001968,"INCLINATION":87.9178,"RA_OF_ASC_NODE":304.6289,"ARG_OF_PERICENTER":100.8926,"MEAN_ANOMALY":259.2429,"EPHEMERIS_TYPE":0,"CLASSIFICATION_TYPE":"U","NORAD_CAT_ID":54118,"ELEMENT_SET_NO":999,"REV_AT_EPOCH":17705,"BSTAR":-5.1017e-05,"MEAN_MOTION_DOT":-7e-08,"MEAN_MOTION_DDOT":0.0},{"OBJECT_NAME":"ONEWEB-0501","OBJECT_ID":"2022-138G","EPOCH":"2026-06-19T03:17:52.335456","MEAN_MOTION":13.19723609,"ECCENTRICITY":0.0001467,"INCLINATION":87.918,"RA_OF_ASC_NODE":304.5772,"ARG_OF_PERICENTER":106.5962,"MEAN_ANOMALY":253.5332,"EPHEMERIS_TYPE":0,"CLASSIFICATION_TYPE":"U","NORAD_CAT_ID":54119,"ELEMENT_SET_NO":999,"REV_AT_EPOCH":17706,"BSTAR":0.00014742,"MEAN_MOTION_DOT":7.2e-07,"MEAN_MOTION_DDOT":0.0},{"OBJECT_NAME":"ONEWEB-0502","OBJECT_ID":"2022-138H","EPOCH":"2026-06-19T02:57:23.762880","MEAN_MOTION":13.19723262,"ECCENTRICITY":0.0001618,"INCLINATION":87.918,"RA_OF_ASC_NODE":304.5689,"ARG_OF_PERICENTER":96.7972,"MEAN_ANOMALY":263.3345,"EPHEMERIS_TYPE":0,"CLASSIFICATION_TYPE":"U","NORAD_CAT_ID":54120,"ELEMENT_SET_NO":999,"REV_AT_EPOCH":17708,"BSTAR":-0.00026794000000000004,"MEAN_MOTION_DOT":-9.4e-07,"MEAN_MOTION_DDOT":0.0},{"OBJECT_NAME":"ONEWEB-0503","OBJECT_ID":"2022-138J","EPOCH":"2026-06-19T02:41:28.986720","MEAN_MOTION":13.1972446,"ECCENTRICITY":0.0001905,"INCLINATION":87.9182,"RA_OF_ASC_NODE":304.5771,"ARG_OF_PERICENTER":91.187,"MEAN_ANOMALY":268.9481,"EPHEMERIS_TYPE":0,"CLASSIFICATION_TYPE":"U","NORAD_CAT_ID":54121,"ELEMENT_SET_NO":999,"REV_AT_EPOCH":17707,"BSTAR":5.7968e-05,"MEAN_MOTION_DOT":3.6e-07,"MEAN_MOTION_DDOT":0.0},{"OBJECT_NAME":"ONEWEB-0504","OBJECT_ID":"2022-138K","EPOCH":"2026-06-19T02:23:17.529216","MEAN_MOTION":13.19724898,"ECCENTRICITY":0.0001628,"INCLINATION":87.918,"RA_OF_ASC_NODE":304.5846,"ARG_OF_PERICENTER":96.5675,"MEAN_ANOMALY":263.5643,"EPHEMERIS_TYPE":0,"CLASSIFICATION_TYPE":"U","NORAD_CAT_ID":54122,"ELEMENT_SET_NO":999,"REV_AT_EPOCH":17708,"BSTAR":0.00024141,"MEAN_MOTION_DOT":1.1e-06,"MEAN_MOTION_DDOT":0.0},{"OBJECT_NAME":"ONEWEB-0505","OBJECT_ID":"2022-138L","EPOCH":"2026-06-19T02:18:44.510400","MEAN_MOTION":13.19726218,"ECCENTRICITY":0.0001385,"INCLINATION":87.918,"RA_OF_ASC_NODE":304.5862,"ARG_OF_PERICENTER":101.9266,"MEAN_ANOMALY":258.2023,"EPHEMERIS_TYPE":0,"CLASSIFICATION_TYPE":"U","NORAD_CAT_ID":54123,"ELEMENT_SET_NO":999,"REV_AT_EPOCH":17706,"BSTAR":6.3602e-05,"MEAN_MOTION_DOT":3.8e-07,"MEAN_MOTION_DDOT":0.0}]